OBJECT_NAME,OBJECT_ID,EPOCH,MEAN_MOTION,ECCENTRICITY,INCLINATION,RA_OF_ASC_NODE,ARG_OF_PERICENTER,MEAN_ANOMALY,EPHEMERIS_TYPE,CLASSIFICATION_TYPE,NORAD_CAT_ID,ELEMENT_SET_NO,REV_AT_EPOCH,BSTAR,MEAN_MOTION_DOT,MEAN_MOTION_DDOT
TIANMU-1 21,2023-208C,2026-07-14T03:57:41.505408,15.35540591,.0006588,97.4530,315.0749,207.9965,152.0925,0,U,58662,999,14170,.17152E-3,.5845E-4,0
TIANMU-1 22,2023-208D,2026-07-14T04:37:00.854400,15.31418505,.0002665,97.4524,311.5526,222.9638,137.1395,0,U,58663,999,14146,.14859E-3,.4429E-4,0
TIANMU-1 15,2024-004A,2026-07-14T03:56:30.958944,15.26907658,.000597,97.4666,21.3549,232.8528,127.2166,0,U,58700,999,13989,.12292E-3,.3174E-4,0
TIANMU-1 16,2024-004B,2026-07-14T05:15:48.626784,15.27010910,.0004403,97.4614,20.6271,250.4351,109.6412,0,U,58701,999,13990,.11684E-3,.3022E-4,0
TIANMU-1 17,2024-004C,2026-07-14T04:54:54.168768,15.27008867,.0003888,97.4640,21.1074,257.0072,103.0733,0,U,58702,999,13989,.12143E-3,.3144E-4,0
TIANMU-1 18,2024-004D,2026-07-14T04:20:23.387136,15.26924490,.0003678,97.4659,21.3461,229.3816,130.7103,0,U,58703,999,13989,.12449E-3,.3217E-4,0
INSAT-3DS,2024-033A,2026-07-14T01:49:50.611008,1.00270977,.0001033,0.0945,264.9386,225.5076,271.0287,0,U,58990,999,4733,0,-.162E-5,0
METEOR-M2 4,2024-039A,2026-07-14T04:40:25.877280,14.22432080,.0008251,98.7025,154.1554,91.2500,268.9623,0,U,59051,999,12310,.1179E-4,-.18E-6,0
GOES 19,2024-119A,2026-07-14T04:36:25.278336,1.00271733,.000043,0.0062,158.9836,55.9599,71.0213,0,U,60133,999,723,0,-.255E-5,0
MTG-S1,2025-143A,2026-07-14T03:09:02.160000,1.00273274,.0003481,0.5852,344.8361,261.7910,92.2157,0,U,64723,999,368,0,-.13E-6,0
METOP-SGA1,2025-172A,2026-07-14T04:48:56.928960,14.19819071,.000713,98.6631,254.3571,335.1041,24.9791,0,U,65159,999,4762,.29376E-4,.19E-6,0
FENGYUN 3H,2025-219A,2026-07-13T19:38:10.573152,14.19924681,.0001184,98.6771,135.0702,63.0799,297.0498,0,U,65815,999,4116,.19054E-4,-.3E-7,0
