TIANMU-1 21             
1 58662U 23208C   26195.16506372  .00005845  00000+0  17152-3 0  9995
2 58662  97.4530 315.0749 0006588 207.9965 152.0925 15.35540591141706
TIANMU-1 22             
1 58663U 23208D   26195.19237100  .00004429  00000+0  14859-3 0  9997
2 58663  97.4524 311.5526 0002665 222.9638 137.1395 15.31418505141463
TIANMU-1 15             
1 58700U 24004A   26195.16424721  .00003174  00000+0  12292-3 0  9993
2 58700  97.4666  21.3549 0005970 232.8528 127.2166 15.26907658139899
TIANMU-1 16             
1 58701U 24004B   26195.21931281  .00003022  00000+0  11684-3 0  9990
2 58701  97.4614  20.6271 0004403 250.4351 109.6412 15.27010910139904
TIANMU-1 17             
1 58702U 24004C   26195.20479362  .00003144  00000+0  12143-3 0  9993
2 58702  97.4640  21.1074 0003888 257.0072 103.0733 15.27008867139890
TIANMU-1 18             
1 58703U 24004D   26195.18082624  .00003217  00000+0  12449-3 0  9992
2 58703  97.4659  21.3461 0003678 229.3816 130.7103 15.26924490139894
INSAT-3DS               
1 58990U 24033A   26195.07628022 -.00000162  00000+0  00000+0 0  9991
2 58990   0.0945 264.9386 0001033 225.5076 271.0287  1.00270977 47330
METEOR-M2 4             
1 59051U 24039A   26195.19474395 -.00000018  00000+0  11790-4 0  9994
2 59051  98.7025 154.1554 0008251  91.2500 268.9623 14.22432080123100
GOES 19                 
1 60133U 24119A   26195.19195924 -.00000255  00000+0  00000+0 0  9994
2 60133   0.0062 158.9836 0000430  55.9599  71.0213  1.00271733  7232
MTG-S1                  
1 64723U 25143A   26195.13127500 -.00000013  00000+0  00000+0 0  9992
2 64723   0.5852 344.8361 0003481 261.7910  92.2157  1.00273274  3684
METOP-SGA1              
1 65159U 25172A   26195.20065890  .00000019  00000+0  29376-4 0  9996
2 65159  98.6631 254.3571 0007130 335.1041  24.9791 14.19819071 47628
FENGYUN 3H              
1 65815U 25219A   26194.81817793 -.00000003  00000+0  19054-4 0  9996
2 65815  98.6771 135.0702 0001184  63.0799 297.0498 14.19924681 41167
